ONEWEB-0539             
1 54644U 22166C   25292.27323940  .00000075  00000+0  15064-3 0  9990
2 54644  87.9165 292.0388 0001597  90.8574 269.2743 13.21722819139718
ONEWEB-0540             
1 54645U 22166D   25292.27987860 -.00000331  00000+0 -83574-3 0  9996
2 54645  87.9166 292.0757 0001637  89.1294 271.0027 13.21697702139702
ONEWEB-0542             
1 54646U 22166E   25292.28302992  .00000122  00000+0  26467-3 0  9999
2 54646  87.9165 292.0346 0001495  81.5280 278.6024 13.21688647139718
ONEWEB-0545             
1 54647U 22166F   25292.24877151  .00000117  00000+0  25073-3 0  9996
2 54647  87.9167 292.0605 0001396  86.9593 273.1700 13.21812336139675
ONEWEB-0580             
1 54648U 22166G   25292.29804344  .00000038  00000+0  61013-4 0  9993
2 54648  87.9166 292.0492 0001601  80.9013 279.2302 13.21772814139726
ONEWEB-0582             
1 54649U 22166H   25292.26508675  .00000155  00000+0  34393-3 0  9999
2 54649  87.9165 292.0488 0001515  77.3501 282.7802 13.21751978139695
ONEWEB-0583             
1 54650U 22166J   25292.27649019  .00000111  00000+0  23791-3 0  9992
2 54650  87.9165 292.0723 0001739  89.6631 270.4703 13.21709454139705
ONEWEB-0584             
1 54651U 22166K   25292.29640523  .00000032  00000+0  45627-4 0  9991
2 54651  87.9166 292.0532 0001701  78.4442 281.6883 13.21775887139694
ONEWEB-0585             
1 54652U 22166L   25292.32122308  .00000091  00000+0  18891-3 0  9999
2 54652  87.9165 292.0335 0002002  90.9262 269.2101 13.21825832139702
ONEWEB-0586             
1 54653U 22166M   25292.25856638  .00000143  00000+0  31573-3 0  9992
2 54653  87.9167 292.0716 0001708  88.3385 271.7945 13.21776131139696
ONEWEB-0587             
1 54654U 22166N   25292.26834234  .00000035  00000+0  52154-4 0  9991
2 54654  87.9178 292.0201 0002231  94.5573 265.5816 13.21739455139852
ONEWEB-0589             
1 54655U 22166P   25292.25530645  .00000130  00000+0  28284-3 0  9992
2 54655  87.9166 292.0634 0001489  62.9453 297.1832 13.21790754139713
ONEWEB-0590             
1 54656U 22166Q   25292.27962846  .00000108  00000+0  22944-3 0  9999
2 54656  87.9166 292.0346 0002206  80.6046 279.5337 13.21697887139703
ONEWEB-0591             
1 54657U 22166R   25292.29152531  .00000124  00000+0  26988-3 0  9994
2 54657  87.9167 292.0560 0001846  85.9009 274.2336 13.21795117139738
ONEWEB-0592             
1 54658U 22166S   25292.29477330  .00000043  00000+0  72293-4 0  9993
2 54658  87.9177 292.0130 0001837  86.1999 273.9345 13.21785707139611
ONEWEB-0593             
1 54659U 22166T   25292.31794306  .00000059  00000+0  11039-3 0  9999
2 54659  87.9167 292.0406 0001688  90.6619 269.4708 13.21836188139725
ONEWEB-0594             
1 54660U 22166U   25292.26181965  .00000092  00000+0  19047-3 0  9990
2 54660  87.9168 292.0695 0001872  91.1873 268.9476 13.21763170139738
