[{"OBJECT_NAME":"ONEWEB-0539","OBJECT_ID":"2022-166C","EPOCH":"2025-10-19T06:33:27.884160","MEAN_MOTION":13.21722819,"ECCENTRICITY":0.00015977,"INCLINATION":87.9165,"RA_OF_ASC_NODE":292.0388,"ARG_OF_PERICENTER":90.8574,"MEAN_ANOMALY":269.2743,"EPHEMERIS_TYPE":0,"CLASSIFICATION_TYPE":"U","NORAD_CAT_ID":54644,"ELEMENT_SET_NO":999,"REV_AT_EPOCH":13971,"BSTAR":0.00015064473,"MEAN_MOTION_DOT":7.5e-7,"MEAN_MOTION_DDOT":0},{"OBJECT_NAME":"ONEWEB-0540","OBJECT_ID":"2022-166D","EPOCH":"2025-10-19T06:43:01.511040","MEAN_MOTION":13.21697702,"ECCENTRICITY":0.00016378,"INCLINATION":87.9166,"RA_OF_ASC_NODE":292.0757,"ARG_OF_PERICENTER":89.1294,"MEAN_ANOMALY":271.0027,"EPHEMERIS_TYPE":0,"CLASSIFICATION_TYPE":"U","NORAD_CAT_ID":54645,"ELEMENT_SET_NO":999,"REV_AT_EPOCH":13970,"BSTAR":-0.00083574383,"MEAN_MOTION_DOT":-3.31e-6,"MEAN_MOTION_DDOT":0},{"OBJECT_NAME":"ONEWEB-0542","OBJECT_ID":"2022-166E","EPOCH":"2025-10-19T06:47:33.785088","MEAN_MOTION":13.21688647,"ECCENTRICITY":0.00014956,"INCLINATION":87.9165,"RA_OF_ASC_NODE":292.0346,"ARG_OF_PERICENTER":81.528,"MEAN_ANOMALY":278.6024,"EPHEMERIS_TYPE":0,"CLASSIFICATION_TYPE":"U","NORAD_CAT_ID":54646,"ELEMENT_SET_NO":999,"REV_AT_EPOCH":13971,"BSTAR":0.00026467159,"MEAN_MOTION_DOT":1.22e-6,"MEAN_MOTION_DDOT":0},{"OBJECT_NAME":"ONEWEB-0545","OBJECT_ID":"2022-166F","EPOCH":"2025-10-19T05:58:13.858464","MEAN_MOTION":13.21812336,"ECCENTRICITY":0.00013961,"INCLINATION":87.9167,"RA_OF_ASC_NODE":292.0605,"ARG_OF_PERICENTER":86.9593,"MEAN_ANOMALY":273.17,"EPHEMERIS_TYPE":0,"CLASSIFICATION_TYPE":"U","NORAD_CAT_ID":54647,"ELEMENT_SET_NO":999,"REV_AT_EPOCH":13967,"BSTAR":0.00025072654,"MEAN_MOTION_DOT":1.17e-6,"MEAN_MOTION_DDOT":0},{"OBJECT_NAME":"ONEWEB-0580","OBJECT_ID":"2022-166G","EPOCH":"2025-10-19T07:09:10.953216","MEAN_MOTION":13.21772814,"ECCENTRICITY":0.00016015,"INCLINATION":87.9166,"RA_OF_ASC_NODE":292.0492,"ARG_OF_PERICENTER":80.9013,"MEAN_ANOMALY":279.2302,"EPHEMERIS_TYPE":0,"CLASSIFICATION_TYPE":"U","NORAD_CAT_ID":54648,"ELEMENT_SET_NO":999,"REV_AT_EPOCH":13972,"BSTAR":6.1012784e-5,"MEAN_MOTION_DOT":3.8e-7,"MEAN_MOTION_DDOT":0},{"OBJECT_NAME":"ONEWEB-0582","OBJECT_ID":"2022-166H","EPOCH":"2025-10-19T06:21:43.495200","MEAN_MOTION":13.21751978,"ECCENTRICITY":0.0001515,"INCLINATION":87.9165,"RA_OF_ASC_NODE":292.0488,"ARG_OF_PERICENTER":77.3501,"MEAN_ANOMALY":282.7802,"EPHEMERIS_TYPE":0,"CLASSIFICATION_TYPE":"U","NORAD_CAT_ID":54649,"ELEMENT_SET_NO":999,"REV_AT_EPOCH":13969,"BSTAR":0.00034392592,"MEAN_MOTION_DOT":1.55e-6,"MEAN_MOTION_DDOT":0},{"OBJECT_NAME":"ONEWEB-0583","OBJECT_ID":"2022-166J","EPOCH":"2025-10-19T06:38:08.752416","MEAN_MOTION":13.21709454,"ECCENTRICITY":0.00017394,"INCLINATION":87.9165,"RA_OF_ASC_NODE":292.0723,"ARG_OF_PERICENTER":89.6631,"MEAN_ANOMALY":270.4703,"EPHEMERIS_TYPE":0,"CLASSIFICATION_TYPE":"U","NORAD_CAT_ID":54650,"ELEMENT_SET_NO":999,"REV_AT_EPOCH":13970,"BSTAR":0.00023790665,"MEAN_MOTION_DOT":1.11e-6,"MEAN_MOTION_DDOT":0},{"OBJECT_NAME":"ONEWEB-0584","OBJECT_ID":"2022-166K","EPOCH":"2025-10-19T07:06:49.411872","MEAN_MOTION":13.21775887,"ECCENTRICITY":0.00017012,"INCLINATION":87.9166,"RA_OF_ASC_NODE":292.0532,"ARG_OF_PERICENTER":78.4442,"MEAN_ANOMALY":281.6883,"EPHEMERIS_TYPE":0,"CLASSIFICATION_TYPE":"U","NORAD_CAT_ID":54651,"ELEMENT_SET_NO":999,"REV_AT_EPOCH":13969,"BSTAR":4.5627213e-5,"MEAN_MOTION_DOT":3.2e-7,"MEAN_MOTION_DDOT":0},{"OBJECT_NAME":"ONEWEB-0585","OBJECT_ID":"2022-166L","EPOCH":"2025-10-19T07:42:33.674112","MEAN_MOTION":13.21825832,"ECCENTRICITY":0.00020021,"INCLINATION":87.9165,"RA_OF_ASC_NODE":292.0335,"ARG_OF_PERICENTER":90.9262,"MEAN_ANOMALY":269.2101,"EPHEMERIS_TYPE":0,"CLASSIFICATION_TYPE":"U","NORAD_CAT_ID":54652,"ELEMENT_SET_NO":999,"REV_AT_EPOCH":13970,"BSTAR":0.00018891183,"MEAN_MOTION_DOT":9.1e-7,"MEAN_MOTION_DDOT":0},{"OBJECT_NAME":"ONEWEB-0586","OBJECT_ID":"2022-166M","EPOCH":"2025-10-19T06:12:20.135232","MEAN_MOTION":13.21776131,"ECCENTRICITY":0.00017088,"INCLINATION":87.9167,"RA_OF_ASC_NODE":292.0716,"ARG_OF_PERICENTER":88.3385,"MEAN_ANOMALY":271.7945,"EPHEMERIS_TYPE":0,"CLASSIFICATION_TYPE":"U","NORAD_CAT_ID":54653,"ELEMENT_SET_NO":999,"REV_AT_EPOCH":13969,"BSTAR":0.00031572683,"MEAN_MOTION_DOT":1.43e-6,"MEAN_MOTION_DDOT":0},{"OBJECT_NAME":"ONEWEB-0587","OBJECT_ID":"2022-166N","EPOCH":"2025-10-19T06:26:24.778176","MEAN_MOTION":13.21739455,"ECCENTRICITY":0.0002231,"INCLINATION":87.9178,"RA_OF_ASC_NODE":292.0201,"ARG_OF_PERICENTER":94.5573,"MEAN_ANOMALY":265.5816,"EPHEMERIS_TYPE":0,"CLASSIFICATION_TYPE":"U","NORAD_CAT_ID":54654,"ELEMENT_SET_NO":999,"REV_AT_EPOCH":13985,"BSTAR":5.2154177e-5,"MEAN_MOTION_DOT":3.5e-7,"MEAN_MOTION_DDOT":0},{"OBJECT_NAME":"ONEWEB-0589","OBJECT_ID":"2022-166P","EPOCH":"2025-10-19T06:07:38.477280","MEAN_MOTION":13.21790754,"ECCENTRICITY":0.00014892,"INCLINATION":87.9166,"RA_OF_ASC_NODE":292.0634,"ARG_OF_PERICENTER":62.9453,"MEAN_ANOMALY":297.1832,"EPHEMERIS_TYPE":0,"CLASSIFICATION_TYPE":"U","NORAD_CAT_ID":54655,"ELEMENT_SET_NO":999,"REV_AT_EPOCH":13971,"BSTAR":0.00028284045,"MEAN_MOTION_DOT":1.3e-6,"MEAN_MOTION_DDOT":0},{"OBJECT_NAME":"ONEWEB-0590","OBJECT_ID":"2022-166Q","EPOCH":"2025-10-19T06:42:39.898944","MEAN_MOTION":13.21697887,"ECCENTRICITY":0.00022064,"INCLINATION":87.9166,"RA_OF_ASC_NODE":292.0346,"ARG_OF_PERICENTER":80.6046,"MEAN_ANOMALY":279.5337,"EPHEMERIS_TYPE":0,"CLASSIFICATION_TYPE":"U","NORAD_CAT_ID":54656,"ELEMENT_SET_NO":999,"REV_AT_EPOCH":13970,"BSTAR":0.00022944,"MEAN_MOTION_DOT":1.08e-6,"MEAN_MOTION_DDOT":0},{"OBJECT_NAME":"ONEWEB-0591","OBJECT_ID":"2022-166R","EPOCH":"2025-10-19T06:59:47.786784","MEAN_MOTION":13.21795117,"ECCENTRICITY":0.00018467,"INCLINATION":87.9167,"RA_OF_ASC_NODE":292.056,"ARG_OF_PERICENTER":85.9009,"MEAN_ANOMALY":274.2336,"EPHEMERIS_TYPE":0,"CLASSIFICATION_TYPE":"U","NORAD_CAT_ID":54657,"ELEMENT_SET_NO":999,"REV_AT_EPOCH":13973,"BSTAR":0.00026988475,"MEAN_MOTION_DOT":1.24e-6,"MEAN_MOTION_DDOT":0},{"OBJECT_NAME":"ONEWEB-0592","OBJECT_ID":"2022-166S","EPOCH":"2025-10-19T07:04:28.413120","MEAN_MOTION":13.21785707,"ECCENTRICITY":0.0001837,"INCLINATION":87.9177,"RA_OF_ASC_NODE":292.013,"ARG_OF_PERICENTER":86.1999,"MEAN_ANOMALY":273.9345,"EPHEMERIS_TYPE":0,"CLASSIFICATION_TYPE":"U","NORAD_CAT_ID":54658,"ELEMENT_SET_NO":999,"REV_AT_EPOCH":13961,"BSTAR":7.2293479e-5,"MEAN_MOTION_DOT":4.3e-7,"MEAN_MOTION_DDOT":0},{"OBJECT_NAME":"ONEWEB-0593","OBJECT_ID":"2022-166T","EPOCH":"2025-10-19T07:37:50.280384","MEAN_MOTION":13.21836188,"ECCENTRICITY":0.00016885,"INCLINATION":87.9167,"RA_OF_ASC_NODE":292.0406,"ARG_OF_PERICENTER":90.6619,"MEAN_ANOMALY":269.4708,"EPHEMERIS_TYPE":0,"CLASSIFICATION_TYPE":"U","NORAD_CAT_ID":54659,"ELEMENT_SET_NO":999,"REV_AT_EPOCH":13972,"BSTAR":0.00011038943,"MEAN_MOTION_DOT":5.9e-7,"MEAN_MOTION_DDOT":0},{"OBJECT_NAME":"ONEWEB-0594","OBJECT_ID":"2022-166U","EPOCH":"2025-10-19T06:17:01.217760","MEAN_MOTION":13.2176317,"ECCENTRICITY":0.00018726,"INCLINATION":87.9168,"RA_OF_ASC_NODE":292.0695,"ARG_OF_PERICENTER":91.1873,"MEAN_ANOMALY":268.9476,"EPHEMERIS_TYPE":0,"CLASSIFICATION_TYPE":"U","NORAD_CAT_ID":54660,"ELEMENT_SET_NO":999,"REV_AT_EPOCH":13973,"BSTAR":0.00019047398,"MEAN_MOTION_DOT":9.2e-7,"MEAN_MOTION_DDOT":0}]
